[{"OBJECT_NAME":"SMDC ONE 1.2","OBJECT_ID":"2012-048B","EPOCH":"2026-03-09T14:14:46.220928","MEAN_MOTION":15.19069434,"ECCENTRICITY":0.0110458,"INCLINATION":64.6579,"RA_OF_ASC_NODE":143.2061,"ARG_OF_PERICENTER":207.1808,"MEAN_ANOMALY":152.3511,"EPHEMERIS_TYPE":0,"CLASSIFICATION_TYPE":"U","NORAD_CAT_ID":38759,"ELEMENT_SET_NO":999,"REV_AT_EPOCH":10101,"BSTAR":0.00057078,"MEAN_MOTION_DOT":0.00013943,"MEAN_MOTION_DDOT":0},{"OBJECT_NAME":"STARLINK-35616","OBJECT_ID":"2025-245X","EPOCH":"2026-03-09T19:35:23.730432","MEAN_MOTION":15.30212716,"ECCENTRICITY":0.00014161,"INCLINATION":53.1574,"RA_OF_ASC_NODE":283.4641,"ARG_OF_PERICENTER":133.3081,"MEAN_ANOMALY":226.8038,"EPHEMERIS_TYPE":0,"CLASSIFICATION_TYPE":"U","NORAD_CAT_ID":66255,"ELEMENT_SET_NO":999,"REV_AT_EPOCH":2127,"BSTAR":0.00087700546,"MEAN_MOTION_DOT":0.00025715,"MEAN_MOTION_DDOT":0}]
